STARLINK-2221
1 18571C 21041U   21326.13752760  .00000477  00000-0  31984-4 0  3269
2 18571  53.0557 343.1277 0001638  60.9000  40.1798 15.06391547    13
